STARLINK-4572           
1 53692U 22105AW  26068.67304046  .00012459  00000+0  56421-3 0  9998
2 53692  97.6182 315.6347 0001842  18.3505 341.7796 15.21020685193556
SPEQTRE                 
1 66769U 25276DH  26068.75606160  .00007042  00000+0  33483-3 0  9995
2 66769  97.4277 144.1551 0001387 149.2003 210.9313 15.19499769 15332
